STARLINK-35388          
1 66466U 25262L   25347.25002315 -.00091311  00000+0 -22030-2 0  9999
2 66466  43.0004  68.3351 0001341 246.7014 354.9990 15.40725762  5722
STARLINK-35682          
1 66467U 25262M   25347.25002315 -.00094277  00000+0 -22743-2 0  9995
2 66467  43.0006  68.3968 0001542 258.9946 317.7864 15.40743167  5727
STARLINK-35331          
1 66468U 25262N   25347.25002315 -.00091764  00000+0 -22134-2 0  9998
2 66468  43.0003  68.3053 0001404 277.2089 336.9090 15.40734330  5725
STARLINK-35451          
1 66469U 25262P   25346.54423356  .00171764  00000+0  29076-2 0  9991
2 66469  42.9999  72.2116 0001103 239.0773 120.9979 15.50210236  5535
STARLINK-35655          
1 66470U 25262Q   25347.25002315 -.00120418  00000+0 -29153-2 0  9998
2 66470  43.0002  68.2752 0001297 269.7012 356.8410 15.40759474  5727
STARLINK-35569          
1 66471U 25262R   25347.25002315 -.00108939  00000+0 -26347-2 0  9995
2 66471  43.0005  68.2451 0000882 251.1745  27.8425 15.40738162  5726
STARLINK-35567          
1 66472U 25262S   25347.25002315 -.00007462  00000+0 -17156-3 0  9994
2 66472  43.0005  68.1843 0000653 288.4864  15.3252 15.40697917  5724
STARLINK-35568          
1 66473U 25262T   25345.31884340  .00230458  00000+0  38259-2 0  9993
2 66473  42.9998  79.3576 0004759 252.6139 107.4201 15.50526439  5346
STARLINK-35620          
1 66474U 25262U   25346.54206772  .00170828  00000+0  27986-2 0  9996
2 66474  43.0009  72.1929 0001465 279.0822  80.9873 15.51135131  5535
STARLINK-35538          
1 66475U 25262V   25347.25002315 -.01679532  00000+0 -41021-1 0  9997
2 66475  43.0008  68.1033 0000841 262.7312  75.0531 15.43495328  5721
STARLINK-35372          
1 66476U 25262W   25347.25002315 -.02034535  00000+0 -47449-1 0  9997
2 66476  43.0000  68.0811 0001362 266.5867  79.8051 15.44939822  5613
STARLINK-35354          
1 66477U 25262X   25347.25002315 -.02052758  00000+0 -43662-1 0  9998
2 66477  43.0000  68.0480 0001569 266.8700  92.5075 15.47612478  5722
