CCSDS_OMM_VERS = 2.0
CREATION_DATE  = 
ORIGINATOR     = 

OBJECT_NAME    = STARLINK-35388
OBJECT_ID      = 2025-262L
CENTER_NAME    = EARTH
REF_FRAME      = TEME
TIME_SYSTEM    = UTC
MEAN_ELEMENT_THEORY = SGP/SGP4

EPOCH          = 2025-12-13T06:00:02.000160
MEAN_MOTION    = 15.40725762
ECCENTRICITY   = .00013418
INCLINATION    = 43.0004
RA_OF_ASC_NODE = 68.3351
ARG_OF_PERICENTER = 246.7014
MEAN_ANOMALY   = 354.9990

EPHEMERIS_TYPE = 0
CLASSIFICATION_TYPE = U
NORAD_CAT_ID   = 66466
ELEMENT_SET_NO = 999
REV_AT_EPOCH   = 572
BSTAR          = -.22029644E-2
MEAN_MOTION_DOT = -.91311E-3
MEAN_MOTION_DDOT = 0

CCSDS_OMM_VERS = 2.0
CREATION_DATE  = 
ORIGINATOR     = 

OBJECT_NAME    = STARLINK-35682
OBJECT_ID      = 2025-262M
CENTER_NAME    = EARTH
REF_FRAME      = TEME
TIME_SYSTEM    = UTC
MEAN_ELEMENT_THEORY = SGP/SGP4

EPOCH          = 2025-12-13T06:00:02.000160
MEAN_MOTION    = 15.40743167
ECCENTRICITY   = .00015421
INCLINATION    = 43.0006
RA_OF_ASC_NODE = 68.3968
ARG_OF_PERICENTER = 258.9946
MEAN_ANOMALY   = 317.7864

EPHEMERIS_TYPE = 0
CLASSIFICATION_TYPE = U
NORAD_CAT_ID   = 66467
ELEMENT_SET_NO = 999
REV_AT_EPOCH   = 572
BSTAR          = -.22742845E-2
MEAN_MOTION_DOT = -.94277E-3
MEAN_MOTION_DDOT = 0

CCSDS_OMM_VERS = 2.0
CREATION_DATE  = 
ORIGINATOR     = 

OBJECT_NAME    = STARLINK-35331
OBJECT_ID      = 2025-262N
CENTER_NAME    = EARTH
REF_FRAME      = TEME
TIME_SYSTEM    = UTC
MEAN_ELEMENT_THEORY = SGP/SGP4

EPOCH          = 2025-12-13T06:00:02.000160
MEAN_MOTION    = 15.40734330
ECCENTRICITY   = .00014049
INCLINATION    = 43.0003
RA_OF_ASC_NODE = 68.3053
ARG_OF_PERICENTER = 277.2089
MEAN_ANOMALY   = 336.9090

EPHEMERIS_TYPE = 0
CLASSIFICATION_TYPE = U
NORAD_CAT_ID   = 66468
ELEMENT_SET_NO = 999
REV_AT_EPOCH   = 572
BSTAR          = -.2213424E-2
MEAN_MOTION_DOT = -.91764E-3
MEAN_MOTION_DDOT = 0

CCSDS_OMM_VERS = 2.0
CREATION_DATE  = 
ORIGINATOR     = 

OBJECT_NAME    = STARLINK-35451
OBJECT_ID      = 2025-262P
CENTER_NAME    = EARTH
REF_FRAME      = TEME
TIME_SYSTEM    = UTC
MEAN_ELEMENT_THEORY = SGP/SGP4

EPOCH          = 2025-12-12T13:03:41.779584
MEAN_MOTION    = 15.50210236
ECCENTRICITY   = .00011033
INCLINATION    = 42.9999
RA_OF_ASC_NODE = 72.2116
ARG_OF_PERICENTER = 239.0773
MEAN_ANOMALY   = 120.9979

EPHEMERIS_TYPE = 0
CLASSIFICATION_TYPE = U
NORAD_CAT_ID   = 66469
ELEMENT_SET_NO = 999
REV_AT_EPOCH   = 553
BSTAR          = .29076405E-2
MEAN_MOTION_DOT = .171764E-2
MEAN_MOTION_DDOT = 0

CCSDS_OMM_VERS = 2.0
CREATION_DATE  = 
ORIGINATOR     = 

OBJECT_NAME    = STARLINK-35655
OBJECT_ID      = 2025-262Q
CENTER_NAME    = EARTH
REF_FRAME      = TEME
TIME_SYSTEM    = UTC
MEAN_ELEMENT_THEORY = SGP/SGP4

EPOCH          = 2025-12-13T06:00:02.000160
MEAN_MOTION    = 15.40759474
ECCENTRICITY   = .00012975
INCLINATION    = 43.0002
RA_OF_ASC_NODE = 68.2752
ARG_OF_PERICENTER = 269.7012
MEAN_ANOMALY   = 356.8410

EPHEMERIS_TYPE = 0
CLASSIFICATION_TYPE = U
NORAD_CAT_ID   = 66470
ELEMENT_SET_NO = 999
REV_AT_EPOCH   = 572
BSTAR          = -.29153322E-2
MEAN_MOTION_DOT = -.120418E-2
MEAN_MOTION_DDOT = 0

CCSDS_OMM_VERS = 2.0
CREATION_DATE  = 
ORIGINATOR     = 

OBJECT_NAME    = STARLINK-35569
OBJECT_ID      = 2025-262R
CENTER_NAME    = EARTH
REF_FRAME      = TEME
TIME_SYSTEM    = UTC
MEAN_ELEMENT_THEORY = SGP/SGP4

EPOCH          = 2025-12-13T06:00:02.000160
MEAN_MOTION    = 15.40738162
ECCENTRICITY   = .0000882
INCLINATION    = 43.0005
RA_OF_ASC_NODE = 68.2451
ARG_OF_PERICENTER = 251.1745
MEAN_ANOMALY   = 27.8425

EPHEMERIS_TYPE = 0
CLASSIFICATION_TYPE = U
NORAD_CAT_ID   = 66471
ELEMENT_SET_NO = 999
REV_AT_EPOCH   = 572
BSTAR          = -.26347164E-2
MEAN_MOTION_DOT = -.108939E-2
MEAN_MOTION_DDOT = 0

CCSDS_OMM_VERS = 2.0
CREATION_DATE  = 
ORIGINATOR     = 

OBJECT_NAME    = STARLINK-35567
OBJECT_ID      = 2025-262S
CENTER_NAME    = EARTH
REF_FRAME      = TEME
TIME_SYSTEM    = UTC
MEAN_ELEMENT_THEORY = SGP/SGP4

EPOCH          = 2025-12-13T06:00:02.000160
MEAN_MOTION    = 15.40697917
ECCENTRICITY   = .00006538
INCLINATION    = 43.0005
RA_OF_ASC_NODE = 68.1843
ARG_OF_PERICENTER = 288.4864
MEAN_ANOMALY   = 15.3252

EPHEMERIS_TYPE = 0
CLASSIFICATION_TYPE = U
NORAD_CAT_ID   = 66472
ELEMENT_SET_NO = 999
REV_AT_EPOCH   = 572
BSTAR          = -.17155768E-3
MEAN_MOTION_DOT = -.7462E-4
MEAN_MOTION_DDOT = 0

CCSDS_OMM_VERS = 2.0
CREATION_DATE  = 
ORIGINATOR     = 

OBJECT_NAME    = STARLINK-35568
OBJECT_ID      = 2025-262T
CENTER_NAME    = EARTH
REF_FRAME      = TEME
TIME_SYSTEM    = UTC
MEAN_ELEMENT_THEORY = SGP/SGP4

EPOCH          = 2025-12-11T07:39:08.069760
MEAN_MOTION    = 15.50526439
ECCENTRICITY   = .00047596
INCLINATION    = 42.9998
RA_OF_ASC_NODE = 79.3576
ARG_OF_PERICENTER = 252.6139
MEAN_ANOMALY   = 107.4201

EPHEMERIS_TYPE = 0
CLASSIFICATION_TYPE = U
NORAD_CAT_ID   = 66473
ELEMENT_SET_NO = 999
REV_AT_EPOCH   = 534
BSTAR          = .38259112E-2
MEAN_MOTION_DOT = .230458E-2
MEAN_MOTION_DDOT = 0

CCSDS_OMM_VERS = 2.0
CREATION_DATE  = 
ORIGINATOR     = 

OBJECT_NAME    = STARLINK-35620
OBJECT_ID      = 2025-262U
CENTER_NAME    = EARTH
REF_FRAME      = TEME
TIME_SYSTEM    = UTC
MEAN_ELEMENT_THEORY = SGP/SGP4

EPOCH          = 2025-12-12T13:00:34.651008
MEAN_MOTION    = 15.51135131
ECCENTRICITY   = .00014651
INCLINATION    = 43.0009
RA_OF_ASC_NODE = 72.1929
ARG_OF_PERICENTER = 279.0822
MEAN_ANOMALY   = 80.9873

EPHEMERIS_TYPE = 0
CLASSIFICATION_TYPE = U
NORAD_CAT_ID   = 66474
ELEMENT_SET_NO = 999
REV_AT_EPOCH   = 553
BSTAR          = .27986206E-2
MEAN_MOTION_DOT = .170828E-2
MEAN_MOTION_DDOT = 0

CCSDS_OMM_VERS = 2.0
CREATION_DATE  = 
ORIGINATOR     = 

OBJECT_NAME    = STARLINK-35538
OBJECT_ID      = 2025-262V
CENTER_NAME    = EARTH
REF_FRAME      = TEME
TIME_SYSTEM    = UTC
MEAN_ELEMENT_THEORY = SGP/SGP4

EPOCH          = 2025-12-13T06:00:02.000160
MEAN_MOTION    = 15.43495328
ECCENTRICITY   = .00008411
INCLINATION    = 43.0008
RA_OF_ASC_NODE = 68.1033
ARG_OF_PERICENTER = 262.7312
MEAN_ANOMALY   = 75.0531

EPHEMERIS_TYPE = 0
CLASSIFICATION_TYPE = U
NORAD_CAT_ID   = 66475
ELEMENT_SET_NO = 999
REV_AT_EPOCH   = 572
BSTAR          = -.41021251E-1
MEAN_MOTION_DOT = -.1679532E-1
MEAN_MOTION_DDOT = 0

CCSDS_OMM_VERS = 2.0
CREATION_DATE  = 
ORIGINATOR     = 

OBJECT_NAME    = STARLINK-35372
OBJECT_ID      = 2025-262W
CENTER_NAME    = EARTH
REF_FRAME      = TEME
TIME_SYSTEM    = UTC
MEAN_ELEMENT_THEORY = SGP/SGP4

EPOCH          = 2025-12-13T06:00:02.000160
MEAN_MOTION    = 15.44939822
ECCENTRICITY   = .00013628
INCLINATION    = 43.0000
RA_OF_ASC_NODE = 68.0811
ARG_OF_PERICENTER = 266.5867
MEAN_ANOMALY   = 79.8051

EPHEMERIS_TYPE = 0
CLASSIFICATION_TYPE = U
NORAD_CAT_ID   = 66476
ELEMENT_SET_NO = 999
REV_AT_EPOCH   = 561
BSTAR          = -.47448741E-1
MEAN_MOTION_DOT = -.2034535E-1
MEAN_MOTION_DDOT = 0

CCSDS_OMM_VERS = 2.0
CREATION_DATE  = 
ORIGINATOR     = 

OBJECT_NAME    = STARLINK-35354
OBJECT_ID      = 2025-262X
CENTER_NAME    = EARTH
REF_FRAME      = TEME
TIME_SYSTEM    = UTC
MEAN_ELEMENT_THEORY = SGP/SGP4

EPOCH          = 2025-12-13T06:00:02.000160
MEAN_MOTION    = 15.47612478
ECCENTRICITY   = .00015697
INCLINATION    = 43.0000
RA_OF_ASC_NODE = 68.0480
ARG_OF_PERICENTER = 266.8700
MEAN_ANOMALY   = 92.5075

EPHEMERIS_TYPE = 0
CLASSIFICATION_TYPE = U
NORAD_CAT_ID   = 66477
ELEMENT_SET_NO = 999
REV_AT_EPOCH   = 572
BSTAR          = -.43661948E-1
MEAN_MOTION_DOT = -.2052758E-1
MEAN_MOTION_DDOT = 0

